{"type": "FeatureCollection", "features": [ {"type": "Feature", "properties": {"norad_id": 35834, "name": "COSMOS 2251 DEB", "group": "cosmos-2251-debris", "lat": -70.72978764897407, "lon": -129.8062446837936, "alt_km": 931.457601727785, "timestamp": "2025-12-23T07:45:09.801838+00:00", "meta": {"OBJECT_NAME": "COSMOS 2251 DEB", "OBJECT_ID": "1993-036ATG", "EPOCH": "2025-12-18T21:21:21.733632", "MEAN_MOTION": 14.12989535, "ECCENTRICITY": 0.01093187, "INCLINATION": 73.9334, "RA_OF_ASC_NODE": 293.5971, "ARG_OF_PERICENTER": 92.3571, "MEAN_ANOMALY": 326.954, "EPHEMERIS_TYPE": 0, "CLASSIFICATION_TYPE": "U", "NORAD_CAT_ID": 35834, "ELEMENT_SET_NO": 999, "REV_AT_EPOCH": 66350, "BSTAR": 0.00038881457, "MEAN_MOTION_DOT": 7.43e-06, "MEAN_MOTION_DDOT": 0}, "tle": {"line1": "1 35834U 93036ATG 25352.88983488  .00000743  00000+0  38881-3 0  9991", "line2": "2 35834  73.9334 293.5971 0109318  92.3571 326.9540 14.12989535663505"}}, "geometry": {"type": "Point", "coordinates": [-129.8062446837936, -70.72978764897407]}}, {"type": "Feature", "properties": {"norad_id": 35835, "name": "COSMOS 2251 DEB", "group": "cosmos-2251-debris", "lat": 24.567164426815978, "lon": 63.13997541443819, "alt_km": 1068.9566473116784, "timestamp": "2025-12-23T07:45:09.801848+00:00", "meta": {"OBJECT_NAME": "COSMOS 2251 DEB", "OBJECT_ID": "1993-036ATH", "EPOCH": "2025-12-21T23:46:51.040128", "MEAN_MOTION": 13.82917227, "ECCENTRICITY": 0.02911556, "INCLINATION": 74.0637, "RA_OF_ASC_NODE": 252.8841, "ARG_OF_PERICENTER": 32.3711, "MEAN_ANOMALY": 329.4908, "EPHEMERIS_TYPE": 0, "CLASSIFICATION_TYPE": "U", "NORAD_CAT_ID": 35835, "ELEMENT_SET_NO": 999, "REV_AT_EPOCH": 61827, "BSTAR": 0.0013811701, "MEAN_MOTION_DOT": 2.065e-05, "MEAN_MOTION_DDOT": 0}, "tle": {"line1": "1 35835U 93036ATH 25355.99086852  .00002065  00000+0  13812-2 0  9991", "line2": "2 35835  74.0637 252.8841 0291155  32.3711 329.4908 13.82917227618274"}}, "geometry": {"type": "Point", "coordinates": [63.13997541443819, 24.567164426815978]}}, {"type": "Feature", "properties": {"norad_id": 35836, "name": "COSMOS 2251 DEB", "group": "cosmos-2251-debris", "lat": 51.0981716660352, "lon": -48.406334933544684, "alt_km": 650.3734048911829, "timestamp": "2025-12-23T07:45:09.801858+00:00", "meta": {"OBJECT_NAME": "COSMOS 2251 DEB", "OBJECT_ID": "1993-036ATJ", "EPOCH": "2025-12-21T04:35:14.629056", "MEAN_MOTION": 14.71143018, "ECCENTRICITY": 0.0023624, "INCLINATION": 74.0314, "RA_OF_ASC_NODE": 156.518, "ARG_OF_PERICENTER": 214.2793, "MEAN_ANOMALY": 145.6856, "EPHEMERIS_TYPE": 0, "CLASSIFICATION_TYPE": "U", "NORAD_CAT_ID": 35836, "ELEMENT_SET_NO": 999, "REV_AT_EPOCH": 63644, "BSTAR": 0.0015319, "MEAN_MOTION_DOT": 9.451e-05, "MEAN_MOTION_DDOT": 0}, "tle": {"line1": "1 35836U 93036ATJ 25355.19114154  .00009451  00000+0  15319-2 0  9991", "line2": "2 35836  74.0314 156.5180 0023624 214.2793 145.6856 14.71143018636445"}}, "geometry": {"type": "Point", "coordinates": [-48.406334933544684, 51.0981716660352]}}, {"type": "Feature", "properties": {"norad_id": 35837, "name": "COSMOS 2251 DEB", "group": "cosmos-2251-debris", "lat": -72.12786186069195, "lon": 125.04636812962843, "alt_km": 1335.0724256959256, "timestamp": "2025-12-23T07:45:09.801867+00:00", "meta": {"OBJECT_NAME": "COSMOS 2251 DEB", "OBJECT_ID": "1993-036ATK", "EPOCH": "2025-12-20T04:59:29.154912", "MEAN_MOTION": 13.63523619, "ECCENTRICITY": 0.04220249, "INCLINATION": 73.7219, "RA_OF_ASC_NODE": 195.2026, "ARG_OF_PERICENTER": 114.812, "MEAN_ANOMALY": 356.3531, "EPHEMERIS_TYPE": 0, "CLASSIFICATION_TYPE": "U", "NORAD_CAT_ID": 35837, "ELEMENT_SET_NO": 999, "REV_AT_EPOCH": 58078, "BSTAR": 0.0020383632, "MEAN_MOTION_DOT": 2.925e-05, "MEAN_MOTION_DDOT": 0}, "tle": {"line1": "1 35837U 93036ATK 25354.20797633  .00002925  00000+0  20384-2 0  9999", "line2": "2 35837  73.7219 195.2026 0422024 114.8120 356.3531 13.63523619580786"}}, "geometry": {"type": "Point", "coordinates": [125.04636812962843, -72.12786186069195]}}, {"type": "Feature", "properties": {"norad_id": 35839, "name": "COSMOS 2251 DEB", "group": "cosmos-2251-debris", "lat": 61.17553690422753, "lon": -28.718771557449728, "alt_km": 378.7304102804601, "timestamp": "2025-12-23T07:45:09.801877+00:00", "meta": {"OBJECT_NAME": "COSMOS 2251 DEB", "OBJECT_ID": "1993-036ATM", "EPOCH": "2025-12-22T06:50:31.482240", "MEAN_MOTION": 15.59214396, "ECCENTRICITY": 0.00075324, "INCLINATION": 74.2047, "RA_OF_ASC_NODE": 302.6087, "ARG_OF_PERICENTER": 136.6015, "MEAN_ANOMALY": 223.5799, "EPHEMERIS_TYPE": 0, "CLASSIFICATION_TYPE": "U", "NORAD_CAT_ID": 35839, "ELEMENT_SET_NO": 999, "REV_AT_EPOCH": 88716, "BSTAR": 0.006520171, "MEAN_MOTION_DOT": 0.00548212, "MEAN_MOTION_DDOT": 0}, "tle": {"line1": "1 35839U 93036ATM 25356.28508660  .00548212  00000+0  65202-2 0  9993", "line2": "2 35839  74.2047 302.6087 0007532 136.6015 223.5799 15.59214396887161"}}, "geometry": {"type": "Point", "coordinates": [-28.718771557449728, 61.17553690422753]}}, {"type": "Feature", "properties": {"norad_id": 35840, "name": "COSMOS 2251 DEB", "group": "cosmos-2251-debris", "lat": 30.747439933535446, "lon": 148.44026580057263, "alt_km": 680.635350311497, "timestamp": "2025-12-23T07:45:09.801888+00:00", "meta": {"OBJECT_NAME": "COSMOS 2251 DEB", "OBJECT_ID": "1993-036ATN", "EPOCH": "2025-12-12T04:26:56.474304", "MEAN_MOTION": 14.37821687, "ECCENTRICITY": 0.01162768, "INCLINATION": 73.9307, "RA_OF_ASC_NODE": 159.2062, "ARG_OF_PERICENTER": 61.7798, "MEAN_ANOMALY": 299.5037, "EPHEMERIS_TYPE": 0, "CLASSIFICATION_TYPE": "U", "NORAD_CAT_ID": 35840, "ELEMENT_SET_NO": 999, "REV_AT_EPOCH": 85283, "BSTAR": 0.0026691111, "MEAN_MOTION_DOT": 8.683e-05, "MEAN_MOTION_DDOT": 0}, "tle": {"line1": "1 35840U 93036ATN 25346.18537586  .00008683  00000+0  26691-2 0  9994", "line2": "2 35840  73.9307 159.2062 0116276  61.7798 299.5037 14.37821687852835"}}, "geometry": {"type": "Point", "coordinates": [148.44026580057263, 30.747439933535446]}}, {"type": "Feature", "properties": {"norad_id": 35883, "name": "COSMOS 2251 DEB", "group": "cosmos-2251-debris", "lat": 23.85343267158732, "lon": -137.15423124375158, "alt_km": 667.6215029209106, "timestamp": "2025-12-23T07:45:09.801897+00:00", "meta": {"OBJECT_NAME": "COSMOS 2251 DEB", "OBJECT_ID": "1993-036ATW", "EPOCH": "2025-12-16T04:41:35.789568", "MEAN_MOTION": 14.50615193, "ECCENTRICITY": 0.00835028, "INCLINATION": 74.0253, "RA_OF_ASC_NODE": 63.5249, "ARG_OF_PERICENTER": 192.1269, "MEAN_ANOMALY": 197.0315, "EPHEMERIS_TYPE": 0, "CLASSIFICATION_TYPE": "U", "NORAD_CAT_ID": 35883, "ELEMENT_SET_NO": 999, "REV_AT_EPOCH": 62436, "BSTAR": 0.00022216854, "MEAN_MOTION_DOT": 8.82e-06, "MEAN_MOTION_DDOT": 0}, "tle": {"line1": "1 35883U 93036ATW 25350.19555312  .00000882  00000+0  22217-3 0  9998", "line2": "2 35883  74.0253  63.5249 0083502 192.1269 197.0315 14.50615193624369"}}, "geometry": {"type": "Point", "coordinates": [-137.15423124375158, 23.85343267158732]}}, {"type": "Feature", "properties": {"norad_id": 35884, "name": "COSMOS 2251 DEB", "group": "cosmos-2251-debris", "lat": 5.600455593201509, "lon": -41.536955742317566, "alt_km": 814.2832452833691, "timestamp": "2025-12-23T07:45:09.801907+00:00", "meta": {"OBJECT_NAME": "COSMOS 2251 DEB", "OBJECT_ID": "1993-036ATX", "EPOCH": "2025-12-16T07:19:09.379488", "MEAN_MOTION": 14.25680751, "ECCENTRICITY": 0.01084022, "INCLINATION": 73.9902, "RA_OF_ASC_NODE": 329.5521, "ARG_OF_PERICENTER": 115.5254, "MEAN_ANOMALY": 245.7151, "EPHEMERIS_TYPE": 0, "CLASSIFICATION_TYPE": "U", "NORAD_CAT_ID": 35884, "ELEMENT_SET_NO": 999, "REV_AT_EPOCH": 22408, "BSTAR": 0.00087030299, "MEAN_MOTION_DOT": 2.171e-05, "MEAN_MOTION_DDOT": 0}, "tle": {"line1": "1 35884U 93036ATX 25350.30496967  .00002171  00000+0  87030-3 0  9999", "line2": "2 35884  73.9902 329.5521 0108402 115.5254 245.7151 14.25680751224085"}}, "geometry": {"type": "Point", "coordinates": [-41.536955742317566, 5.600455593201509]}}, {"type": "Feature", "properties": {"norad_id": 35885, "name": "COSMOS 2251 DEB", "group": "cosmos-2251-debris", "lat": -63.004985846141665, "lon": 129.51894787708832, "alt_km": 777.9630138563216, "timestamp": "2025-12-23T07:45:09.801917+00:00", "meta": {"OBJECT_NAME": "COSMOS 2251 DEB", "OBJECT_ID": "1993-036ATY", "EPOCH": "2025-12-20T03:26:35.075328", "MEAN_MOTION": 14.37533369, "ECCENTRICITY": 0.00236117, "INCLINATION": 74.0287, "RA_OF_ASC_NODE": 281.1634, "ARG_OF_PERICENTER": 0.0497, "MEAN_ANOMALY": 0.0654, "EPHEMERIS_TYPE": 0, "CLASSIFICATION_TYPE": "U", "NORAD_CAT_ID": 35885, "ELEMENT_SET_NO": 999, "REV_AT_EPOCH": 65122, "BSTAR": 0.00021713075, "MEAN_MOTION_DOT": 6.26e-06, "MEAN_MOTION_DDOT": 0}, "tle": {"line1": "1 35885U 93036ATY 25354.14346152  .00000626  00000+0  21713-3 0  9995", "line2": "2 35885  74.0287 281.1634 0023611   0.0497   0.0654 14.37533369651222"}}, "geometry": {"type": "Point", "coordinates": [129.51894787708832, -63.004985846141665]}}, {"type": "Feature", "properties": {"norad_id": 35888, "name": "COSMOS 2251 DEB", "group": "cosmos-2251-debris", "lat": -73.51287147548031, "lon": -98.7879318170734, "alt_km": 738.7479027172449, "timestamp": "2025-12-23T07:45:09.801927+00:00", "meta": {"OBJECT_NAME": "COSMOS 2251 DEB", "OBJECT_ID": "1993-036AUB", "EPOCH": "2025-12-19T16:53:26.890080", "MEAN_MOTION": 14.58341015, "ECCENTRICITY": 0.00479832, "INCLINATION": 74.0337, "RA_OF_ASC_NODE": 343.4108, "ARG_OF_PERICENTER": 113.3266, "MEAN_ANOMALY": 247.2958, "EPHEMERIS_TYPE": 0, "CLASSIFICATION_TYPE": "U", "NORAD_CAT_ID": 35888, "ELEMENT_SET_NO": 999, "REV_AT_EPOCH": 86375, "BSTAR": 0.00026393359, "MEAN_MOTION_DOT": 1.211e-05, "MEAN_MOTION_DDOT": 0}, "tle": {"line1": "1 35888U 93036AUB 25353.70378345  .00001211  00000+0  26393-3 0  9998", "line2": "2 35888  74.0337 343.4108 0047983 113.3266 247.2958 14.58341015863752"}}, "geometry": {"type": "Point", "coordinates": [-98.7879318170734, -73.51287147548031]}}]}